ONEWEB-0628             
1 55169U 23004AF  25232.87713692  .00000368  00000+0  98626-3 0  9992
2 55169  87.8868  50.3292 0002271 105.2070 254.9310 13.12442882128641
ONEWEB-0629             
1 55170U 23004AG  25232.78593883  .00000007  00000+0 -14891-4 0  9996
2 55170  87.9031  65.6554 0002128  88.7172 271.4203 13.17647353128027
ONEWEB-0631             
1 55171U 23004AH  25232.70604598  .00000109  00000+0  24324-3 0  9998
2 55171  87.9145  35.1054 0001402 106.5382 253.5904 13.18689151130077
ONEWEB-0709             
1 55172U 23004AJ  25232.82396236 -.00000234  00000+0 -69673-3 0  9996
2 55172  87.8777  80.9499 0000862  69.9690 290.1531 13.11416321126508
ONEWEB-0710             
1 55173U 23004AK  25232.80029999  .00000035  00000+0  57526-4 0  9996
2 55173  87.9022  65.6502 0001830  94.1202 266.0139 13.17648844128021
ONEWEB-0711             
1 55174U 23004AL  25232.64253121  .00001508  00000+0  42186-2 0  9995
2 55174  87.8776  80.9535 0002133 105.9736 254.1627 13.11426552126441
ONEWEB-0713             
1 55175U 23004AM  25232.81378163  .00000240  00000+0  64139-3 0  9994
2 55175  87.8776  80.9270 0001807  94.1766 265.9569 13.11415498126450
ONEWEB-0715             
1 55176U 23004AN  25232.80869591  .00000530  00000+0  14601-2 0  9994
2 55176  87.8775  80.9283 0001405  88.6748 271.4541 13.11414981126498
